SAUDISAT 1C (SO-50)     
1 27607U 02058C   26165.32313440  .00000923  00000+0  12619-3 0  9992
2 27607  64.5509 137.8468 0075333 263.0043  96.2490 14.83041320264030
SAUDISAT 2              
1 28371U 04025F   26165.55614666  .00000226  00000+0  61487-4 0  9990
2 28371  98.5508 165.4700 0023690 306.7156  53.1865 14.56682577165369
SAUDISAT 3              
1 31118U 07012B   26165.60660124  .00000214  00000+0  42776-4 0  9995
2 31118  98.1455 116.0055 0013504 232.6414 127.3564 14.71424247 27363
PISAT                   
1 41784U 16059B   26165.75996178  .00000747  00000+0  13485-3 0  9998
2 41784  97.8179 166.3170 0028186 210.7259 149.2298 14.68979729519385
FLYING LAPTOP           
1 42831U 17042G   26165.85249463  .00003316  00000+0  26239-3 0  9990
2 42831  97.4671 321.4751 0019511 129.3189 230.9769 15.01133419486100
SALSAT                  
1 46495U 20068K   26165.52910375  .00006973  00000+0  24454-3 0  9992
2 46495  97.8843 168.4319 0008235 319.4661  40.5964 15.29765944314951
